company_name,client_name,email,mobile,source,remark,category,state,city,pincode,website
Anant Enterprises,,,020 2442 3598,Digital signage manufacturer,,Medical book store,Maharashtra,Pune,411009,http://www.anantent.com/
Brandstorm - one stop solution for all your printing and signage manufacturing work,,,,Digital signage manufacturer,,Print shop,Maharashtra,Pune,411014,https://brandstormindia.com/
LED SIGN BOARD Manufacturers,,,087969 68701,Digital signage manufacturer,,Neon sign shop,Maharashtra,Pune,411037,https://led-sign-board-manufacturers-neon-sign-shop.business.site/?utm_source=gmb&utm_medium=referral
Orchid Digitals,,,098232 39793,Digital signage manufacturer,,Print shop,Maharashtra,Pune,411030,https://orchiddigitals.com/
ASD Advertising - LED Board Manufacturer & Flex Printing,,,,Digital signage manufacturer,,Print shop,Maharashtra,Pimpri-Chinchwad,411057,
ASTii Displays Private Limited,,,093344 59000,Digital signage manufacturer,,Technical service,Maharashtra,Pimpri-Chinchwad,412105,http://astii.in/
KK Neon Signs,,,093720 60680,Digital signage manufacturer,,Sign shop,Maharashtra,Pune,411009,
SignagEx.in,,,099693 82878,Digital signage manufacturer,,Advertising agency,Maharashtra,Navi Mumbai,400705,http://www.signagex.in/
Siddhesh Enterprises Media & Events,,,,Digital signage manufacturer,,Digital printing service,Maharashtra,Pune,411051,https://siddheshenterprise.com/
Digital Signage Networks India Pvt. Ltd.,,,022 4921 4921,Digital signage manufacturer,,Corporate office,,,400013,
EGSIGN - Electrographics Sign Pvt. Ltd.,,,098922 55066,Digital signage manufacturer,,Manufacturer,Maharashtra,Mumbai,400102,http://www.egsign.co/
Xtreme Media,,,075066 66067,Digital signage manufacturer,,Audio visual equipment supplier,Maharashtra,Mumbai,400031,http://www.xtreme-media.com/
Creative Sign India,,,022 2676 2872,Digital signage manufacturer,,Digital printing service,Maharashtra,Mumbai,400104,http://creativesignindia.in/
Technik India,,,097300 65208,Digital signage manufacturer,,Electronics company,Maharashtra,Pune,411028,http://technikindia.in/
Bitsy Digital Display Solutions,,,099303 73760,Digital signage manufacturer,,Audio visual consultant,Maharashtra,Mumbai,400092,http://www.bitsydisplays.com/
Signext Display Systems (Pune Office),,,091672 72382,Digital signage manufacturer,,Sign shop in Maharashtra,,,411033,http://www.signextdisplay.com/
KANHA DIGITAL,,,097673 35101,Digital signage manufacturer,,Print shop,Maharashtra,Pune,411046,http://www.kanhadigital.com/
Banner Ad India,,,022 2878 3838,Digital signage manufacturer,,Advertising agency,Maharashtra,Mumbai,400090,http://www.banneradindia.com/
Aero Sign,,,098339 96182,Digital signage manufacturer,,Advertising agency,Maharashtra,Mumbai,400102,http://www.aerosign.co/
Anugrah Arts Pvt. Ltd.,,,099607 27705,Digital signage manufacturer,,Advertising agency,Maharashtra,Pimpri-Chinchwad,411027,http://www.anugraharts.net/
Retail Signs by signs360® India - signage. across the globe.,,,086000 00789,Digital signage manufacturer,,Sign shop,Maharashtra,Mumbai,400014,https://signs360.in/
Advaxo Sign,,,082917 40648,Digital signage manufacturer,,Event management company,Maharashtra,Navi Mumbai,400706,
AV LASERcrafts™ - Sign Boards & Aluminium Composite Panel Work,,,090677 88666,Digital signage manufacturer,,Sign shop,Maharashtra,Badlapur,421503,https://avlasercrafts.com/
Sharp Sign,,,099797 56565,Digital signage manufacturer,,Sign shop,Gujarat,Surat,394210,http://www.sharpsign.biz/
SIGNAGE INDIA,,,099994 60724,Digital signage manufacturer,,Neon sign shop,Haryana,Gurgaon,122001,http://www.galaxysignage.com/
Led signboard manufacturers,,,093203 22915,Digital signage manufacturer,,Manufacturer,Maharashtra,Mumbai,400068,http://www.neonworld.co.in/
"LED Sign Board, Hospital Signage Manufacturers in Hyderabad - AAA Business Solutions India Pvt.Ltd",,,090104 00019,Digital signage manufacturer,,Sign shop,Telangana,Hyderabad,500051,http://www.aaabusinesssolutions.net/?utm_source=local&utm_medium=orgranic&utm_campaign=gmb
Sachin Sign Craft,,,080078 88788,Digital signage manufacturer,,Neon sign shop,Maharashtra,Latur,413512,http://www.sachinsigncraft.in/
Saya - Digital Signage Software Solutions,,,088849 85576,Digital signage manufacturer,,Software company,Telangana,Hyderabad,500033,
SIGN STUDIO India - Signage Makers Company | LED Sign boards | Directional Sign Board | Name Plates | Hubli | North Karnataka,,,097003 07003,Digital signage manufacturer,,Sign shop,Karnataka,Hubli,580030,https://signstudioindia.com/?utm_source=GMB&utm_medium=Organic&utm_campaign=GMB1&utm_term=Signstudioindia&utm_content=Sign%20Studio%20Hubli%20-%20Signage%20Company%20%7C%20LED%20Sign%20board%20%7C%20ACP%20Paneling%20%7C%20CNC%20Jalli%20%7C%20Laser%20cutting%20Services%20%7C%20Main%20Sign%20%7C%20Highway%20%7C%20House%20%7C%20Poly%20%7C%20Directional%20%7C%20Sky%20%7C%20Reception%20%7C%20Directional%20Sign%20Board%20%7C%20Manufacturers%20%7C%20North%20Karnataka
House Name Plate India,,,,Digital signage manufacturer,,Sign shop,Maharashtra,Pune,411052,https://housenameplate.in/
Xtreme Media Digital Signage,,,088005 28811,Digital signage manufacturer,,Software company,Madhya Pradesh,Indore,452010,http://www.xtreme-media.com/
"Classic Digital India - Digital, Flex, Vinyl Printing Company in Thane India",,,098331 20507,Digital signage manufacturer,,Digital printing service,Maharashtra,Thane,400601,http://classicdigitalindia.com/
Sushant Industries,,,072596 17870,Digital signage manufacturer,,Sign shop in Karnataka,,,580011,http://www.mysushant.com/
Jarma Technologies LLP,,,091379 85009,Digital signage manufacturer,,Software company,Maharashtra,Mumbai,400053,http://www.jarma.co.in/
Scala India - Digital Signage Hardware & Software Company,,,,Digital signage manufacturer,,Software company,Karnataka,Bengaluru,560001,http://www.scala.com/in
Truelink Media: Innovative Digital Signage Solution,,,070163 64346,Digital signage manufacturer,,Manufacturer,Gujarat,Santej,382721,http://www.truelinkmedia.com/
Raju Painter,,,070417 77701,Digital signage manufacturer,,Neon sign shop,Gujarat,Surat,395004,http://www.rajupainter.com/
AV LASERcrafts™ - Sign Boards & Aluminium Composite Panel Work,,,091522 88666,Digital signage manufacturer,,Sign shop,Maharashtra,Navi Mumbai,410206,https://avlasercrafts.com/
JASRA - Digital Signage Solution Pvt. Ltd.,,,096760 78462,Digital signage manufacturer,,Software company,Telangana,Hyderabad,500036,
Xynage - Enterprise Digital Signage Solutions,,,099798 71019,Digital signage manufacturer,,,,,,https://www.xynage.io/
RACHNA GRAPHICS,,,093260 12760,Digital signage manufacturer,,Digital printer,Goa,Panaji,403001,http://rachnagraphics.com/
Elpro Technologies,,,080 4800 2586,Digital signage manufacturer,,Computer hardware manufacturer,Karnataka,Bengaluru,560032,https://elprotech.in/
Led Signage Manufacturers,,,,Digital signage manufacturer,,,,,110014,
Leading Printing & Signage Manufacturers - Lakshya Signages,,,098188 07979,Digital signage manufacturer,,Corporate office,,,110041,https://lakshyasignages.com/
Firstdigitals,,,099482 22400,Digital signage manufacturer,,Digital printing service,Telangana,Hyderabad,500080,https://www.firstdigitals.in/
Hitech Vision - LED Sign Board Manufacturers in Chennai,,,,Digital signage manufacturer,,Neon sign shop,Tamil Nadu,Chennai,600004,https://hitechvision.in/
TouchSign,,,090030 11048,Digital signage manufacturer,,Manufacturer,Tamil Nadu,Chennai,600100,http://www.touchsign.co.in/
Nilkanth Flex banner,,,097269 23164,Digital signage manufacturer,,Advertising agency,Gujarat,Ahmedabad,382418,http://jsdl.in/EL-11E6QAQMYUE
"BL Signage ( LED Display Board, Road Signage Board, Traffic Sign Board )",,,098105 14944,Digital signage manufacturer,,Electronics manufacturer in New Delhi,,,110005,http://www.blsignage.tradeindia.com/
Osel Technology Pvt. Ltd.,,,1800 890 4398,Digital signage manufacturer,,Manufacturer in Uttar Pradesh,,,201308,https://www.oseltech.com/
DISPLAYFORT,,,074899 30931,Digital signage manufacturer,,Audio visual equipment supplier,Madhya Pradesh,Indore,452003,https://www.displayfort.com/
Sunray technology,,,080 3743 1208,Digital signage manufacturer,,Sign shop,Gujarat,Ahmedabad,380004,http://www.sunraytechnology.in/
SignTrade,,,073581 11332,Digital signage manufacturer,,Print shop in Tamil Nadu,,,600032,http://www.signtrade.in/
"Esskay Advertising, Designing, Printing, Graphic Designing In Nagpur India",,,,Digital signage manufacturer,,Advertising agency,Maharashtra,Nagpur,440004,https://vidarbhads.com/Nagpur/esskay-advertising
Signages Solutions,,,098734 76008,Digital signage manufacturer,,Sign shop in New Delhi,,,110055,http://signagessolutions.com/
Sign For Safety India Pvt Ltd,,,087796 72202,Digital signage manufacturer,,Medical equipment supplier,Maharashtra,Navi Mumbai,400614,http://signforsafety.com/
Firoz Arts,,,,Digital signage manufacturer,,Print shop,Maharashtra,Shirwal,412801,
The Idea Factory,,,097820 01144,Digital signage manufacturer,,Advertising agency,Rajasthan,Jaipur,302017,http://www.theideafactory.co.in/
Digital Arts Printing Solutions,,,,Digital signage manufacturer,,Print shop in Maharashtra,,,401208,http://www.digitalarts.net.in/
Visiontech Systems,,,080 4875 5119,Digital signage manufacturer,,Electronics manufacturer,Karnataka,Bengaluru,560004,http://www.visiontechsystem.com/
Budget Signs Baddi,,,022 2854 7886,Digital signage manufacturer,,Sign shop,Himachal Pradesh,Baddi,173205,http://www.budgetsigns.co.in/
Buzz Makers - Digital Marketing Agency,,,098903 93090,Digital signage manufacturer,,Advertising agency,Maharashtra,Mumbai,400101,http://www.buzzmakers.in/
,,,,,,,,,,
,,,,,,,,,,
,,,,,,,,,,
,,,,,,,,,,
,,,,,,,,,,
,,,,,,,,,,
,,,,,,,,,,
,,,,,,,,,,
,,,,,,,,,,
,,,,,,,,,,
,,,,,,,,,,
,,,,,,,,,,
,,,,,,,,,,
,,,,,,,,,,
,,,,,,,,,,
,,,,,,,,,,
,,,,,,,,,,
